{
  "type": "FeatureCollection",
  "features": [
    {
      "type": "Feature",
      "properties": {
        "norad_id": 66495,
        "name": "STARLINK-35832",
        "group": "last-30-days",
        "lat": -42.952498901860814,
        "lon": 57.62778334444522,
        "alt_km": 417.3679166225302,
        "timestamp": "2025-12-09T07:41:31.972118+00:00",
        "meta_object_name": "STARLINK-35832",
        "meta_object_id": "2025-263L",
        "meta_epoch": "2025-12-08T22:00:03.000096",
        "meta_mean_motion": 15.50563836,
        "meta_eccentricity": 0.0001715,
        "meta_inclination": 43.0003,
        "meta_ra_of_asc_node": 147.4835,
        "meta_arg_of_pericenter": 290.155,
        "meta_mean_anomaly": 244.9248,
        "meta_ephemeris_type": 0,
        "meta_classification_type": "U",
        "meta_norad_cat_id": 66495,
        "meta_element_set_no": 999,
        "meta_rev_at_epoch": 502,
        "meta_bstar": -7.4443223e-05,
        "meta_mean_motion_dot": -4.704e-05,
        "meta_mean_motion_ddot": 0,
        "tle_line1": "1 66495U 25263L   25342.91670139 -.00004704  00000+0 -74443-4 0  9992",
        "tle_line2": "2 66495  43.0003 147.4835 0001715 290.1550 244.9248 15.50563836  5022"
      },
      "geometry": {
        "type": "Point",
        "coordinates": [
          57.62778334444522,
          -42.952498901860814
        ]
      }
    },
    {
      "type": "Feature",
      "properties": {
        "norad_id": 66496,
        "name": "STARLINK-35909",
        "group": "last-30-days",
        "lat": -42.86574110703167,
        "lon": 60.23584204573388,
        "alt_km": 417.1973062080342,
        "timestamp": "2025-12-09T07:41:31.972129+00:00",
        "meta_object_name": "STARLINK-35909",
        "meta_object_id": "2025-263M",
        "meta_epoch": "2025-12-08T22:00:03.000096",
        "meta_mean_motion": 15.50524641,
        "meta_eccentricity": 0.00017225,
        "meta_inclination": 43.0004,
        "meta_ra_of_asc_node": 147.4787,
        "meta_arg_of_pericenter": 272.8784,
        "meta_mean_anomaly": 264.1178,
        "meta_ephemeris_type": 0,
        "meta_classification_type": "U",
        "meta_norad_cat_id": 66496,
        "meta_element_set_no": 999,
        "meta_rev_at_epoch": 502,
        "meta_bstar": 0.0014660394,
        "meta_mean_motion_dot": 0.00086452,
        "meta_mean_motion_ddot": 0,
        "tle_line1": "1 66496U 25263M   25342.91670139  .00086452  00000+0  14660-2 0  9994",
        "tle_line2": "2 66496  43.0004 147.4787 0001722 272.8784 264.1178 15.50524641  5021"
      },
      "geometry": {
        "type": "Point",
        "coordinates": [
          60.23584204573388,
          -42.86574110703167
        ]
      }
    },
    {
      "type": "Feature",
      "properties": {
        "norad_id": 66497,
        "name": "STARLINK-35899",
        "group": "last-30-days",
        "lat": -42.720263342686955,
        "lon": 62.82647972813553,
        "alt_km": 417.2043666871268,
        "timestamp": "2025-12-09T07:41:31.972138+00:00",
        "meta_object_name": "STARLINK-35899",
        "meta_object_id": "2025-263N",
        "meta_epoch": "2025-12-08T22:00:03.000096",
        "meta_mean_motion": 15.50554544,
        "meta_eccentricity": 0.00018581,
        "meta_inclination": 43.0005,
        "meta_ra_of_asc_node": 147.4735,
        "meta_arg_of_pericenter": 285.4552,
        "meta_mean_anomaly": 253.4581,
        "meta_ephemeris_type": 0,
        "meta_classification_type": "U",
        "meta_norad_cat_id": 66497,
        "meta_element_set_no": 999,
        "meta_rev_at_epoch": 502,
        "meta_bstar": 0.00020792672,
        "meta_mean_motion_dot": 0.00011864,
        "meta_mean_motion_ddot": 0,
        "tle_line1": "1 66497U 25263N   25342.91670139  .00011864  00000+0  20793-3 0  9995",
        "tle_line2": "2 66497  43.0005 147.4735 0001858 285.4552 253.4581 15.50554544  5023"
      },
      "geometry": {
        "type": "Point",
        "coordinates": [
          62.82647972813553,
          -42.720263342686955
        ]
      }
    },
    {
      "type": "Feature",
      "properties": {
        "norad_id": 66498,
        "name": "STARLINK-35907",
        "group": "last-30-days",
        "lat": -42.52237225305146,
        "lon": 65.33111005127807,
        "alt_km": 418.10934634378646,
        "timestamp": "2025-12-09T07:41:31.972149+00:00",
        "meta_object_name": "STARLINK-35907",
        "meta_object_id": "2025-263P",
        "meta_epoch": "2025-12-08T22:00:03.000096",
        "meta_mean_motion": 15.50710286,
        "meta_eccentricity": 0.00011929,
        "meta_inclination": 43,
        "meta_ra_of_asc_node": 147.4688,
        "meta_arg_of_pericenter": 263.0273,
        "meta_mean_anomaly": 277.7572,
        "meta_ephemeris_type": 0,
        "meta_classification_type": "U",
        "meta_norad_cat_id": 66498,
        "meta_element_set_no": 999,
        "meta_rev_at_epoch": 502,
        "meta_bstar": -0.0069246396,
        "meta_mean_motion_dot": -0.00388852,
        "meta_mean_motion_ddot": 0,
        "tle_line1": "1 66498U 25263P   25342.91670139 -.00388852  00000+0 -69246-2 0  9997",
        "tle_line2": "2 66498  43.0000 147.4688 0001192 263.0273 277.7572 15.50710286  5025"
      },
      "geometry": {
        "type": "Point",
        "coordinates": [
          65.33111005127807,
          -42.52237225305146
        ]
      }
    },
    {
      "type": "Feature",
      "properties": {
        "norad_id": 66499,
        "name": "STARLINK-35816",
        "group": "last-30-days",
        "lat": -41.93500970904325,
        "lon": 70.50791235770407,
        "alt_km": 417.3805837284508,
        "timestamp": "2025-12-09T07:41:31.972161+00:00",
        "meta_object_name": "STARLINK-35816",
        "meta_object_id": "2025-263Q",
        "meta_epoch": "2025-12-08T22:00:03.000096",
        "meta_mean_motion": 15.50546413,
        "meta_eccentricity": 0.00014762,
        "meta_inclination": 43.0003,
        "meta_ra_of_asc_node": 147.4593,
        "meta_arg_of_pericenter": 276.4306,
        "meta_mean_anomaly": 268.2274,
        "meta_ephemeris_type": 0,
        "meta_classification_type": "U",
        "meta_norad_cat_id": 66499,
        "meta_element_set_no": 999,
        "meta_rev_at_epoch": 502,
        "meta_bstar": 0.00056463831,
        "meta_mean_motion_dot": 0.00032884,
        "meta_mean_motion_ddot": 0,
        "tle_line1": "1 66499U 25263Q   25342.91670139  .00032884  00000+0  56464-3 0  9996",
        "tle_line2": "2 66499  43.0003 147.4593 0001476 276.4306 268.2274 15.50546413  5027"
      },
      "geometry": {
        "type": "Point",
        "coordinates": [
          70.50791235770407,
          -41.93500970904325
        ]
      }
    },
    {
      "type": "Feature",
      "properties": {
        "norad_id": 66500,
        "name": "STARLINK-35894",
        "group": "last-30-days",
        "lat": -33.808765984580994,
        "lon": 11.153064772457286,
        "alt_km": 417.5309385796472,
        "timestamp": "2025-12-09T07:41:31.972171+00:00",
        "meta_object_name": "STARLINK-35894",
        "meta_object_id": "2025-263R",
        "meta_epoch": "2025-12-08T22:00:03.000096",
        "meta_mean_motion": 15.50556164,
        "meta_eccentricity": 0.00012195,
        "meta_inclination": 43.0003,
        "meta_ra_of_asc_node": 147.5739,
        "meta_arg_of_pericenter": 294.455,
        "meta_mean_anomaly": 203.4218,
        "meta_ephemeris_type": 0,
        "meta_classification_type": "U",
        "meta_norad_cat_id": 66500,
        "meta_element_set_no": 999,
        "meta_rev_at_epoch": 502,
        "meta_bstar": 0.00089468404,
        "meta_mean_motion_dot": 0.00052454,
        "meta_mean_motion_ddot": 0,
        "tle_line1": "1 66500U 25263R   25342.91670139  .00052454  00000+0  89468-3 0  9994",
        "tle_line2": "2 66500  43.0003 147.5739 0001219 294.4550 203.4218 15.50556164  5022"
      },
      "geometry": {
        "type": "Point",
        "coordinates": [
          11.153064772457286,
          -33.808765984580994
        ]
      }
    },
    {
      "type": "Feature",
      "properties": {
        "norad_id": 66501,
        "name": "STARLINK-35897",
        "group": "last-30-days",
        "lat": -41.55908884545962,
        "lon": 73.02635990056562,
        "alt_km": 417.27170038363784,
        "timestamp": "2025-12-09T07:41:31.972183+00:00",
        "meta_object_name": "STARLINK-35897",
        "meta_object_id": "2025-263S",
        "meta_epoch": "2025-12-08T22:00:03.000096",
        "meta_mean_motion": 15.50604824,
        "meta_eccentricity": 0.00017038,
        "meta_inclination": 43,
        "meta_ra_of_asc_node": 147.4537,
        "meta_arg_of_pericenter": 293.128,
        "meta_mean_anomaly": 253.4273,
        "meta_ephemeris_type": 0,
        "meta_classification_type": "U",
        "meta_norad_cat_id": 66501,
        "meta_element_set_no": 999,
        "meta_rev_at_epoch": 502,
        "meta_bstar": -0.0010091348,
        "meta_mean_motion_dot": -0.00059153,
        "meta_mean_motion_ddot": 0,
        "tle_line1": "1 66501U 25263S   25342.91670139 -.00059153  00000+0 -10091-2 0  9995",
        "tle_line2": "2 66501  43.0000 147.4537 0001703 293.1280 253.4273 15.50604824  5022"
      },
      "geometry": {
        "type": "Point",
        "coordinates": [
          73.02635990056562,
          -41.55908884545962
        ]
      }
    }
  ]
}